$$SOE
2460721.500000000, A.D. 2025-Feb-15 00:00:00.0000, -3.149745190391904E+08, -2.988927899169634E+08, -6.744014533545728E+07,
2460728.500000000, A.D. 2025-Feb-22 00:00:00.0000, -3.064237091088923E+08, -3.056784606292067E+08, -6.790033831088762E+07,
2460735.500000000, A.D. 2025-Mar-01 00:00:00.0000, -2.976960184390477E+08, -3.122877335865244E+08, -6.832133415248488E+07,
2460742.500000000, A.D. 2025-Mar-08 00:00:00.0000, -2.887949524722259E+08, -3.187151886263818E+08, -6.870253908526507E+07,
2460749.500000000, A.D. 2025-Mar-15 00:00:00.0000, -2.797242097942716E+08, -3.249554457092385E+08, -6.904337901121391E+07,
2460756.500000000, A.D. 2025-Mar-22 00:00:00.0000, -2.704876860644701E+08, -3.310031723728402E+08, -6.934330059182389E+07,
2460763.500000000, A.D. 2025-Mar-29 00:00:00.0000, -2.610894762320341E+08, -3.368530937070941E+08, -6.960177265710330E+07,
2460770.500000000, A.D. 2025-Apr-05 00:00:00.0000, -2.515338746906180E+08, -3.425000016994866E+08, -6.981828771169494E+07,
2460777.500000000, A.D. 2025-Apr-12 00:00:00.0000, -2.418253752736267E+08, -3.479387638314723E+08, -6.999236334943022E+07,
2460784.500000000, A.D. 2025-Apr-19 00:00:00.0000, -2.319686712540177E+08, -3.531643317882849E+08, -7.012354362691046E+07,
2460791.500000000, A.D. 2025-Apr-26 00:00:00.0000, -2.219686550533291E+08, -3.581717504634498E+08, -7.021140043271136E+07,
2460798.500000000, A.D. 2025-May-03 00:00:00.0000, -2.118304175226866E+08, -3.629561672146752E+08, -7.025553485562140E+07,
2460805.500000000, A.D. 2025-May-10 00:00:00.0000, -2.015592467440049E+08, -3.675128413364589E+08, -7.025557854802720E+07,
2460812.500000000, A.D. 2025-May-17 00:00:00.0000, -1.911606262923670E+08, -3.718371537631363E+08, -7.021119508533067E+07,
2460819.500000000, A.D. 2025-May-24 00:00:00.0000, -1.806402327652541E+08, -3.759246170285634E+08, -7.012208133621103E+07,
2460826.500000000, A.D. 2025-May-31 00:00:00.0000, -1.700039321432715E+08, -3.797708851417053E+08, -6.998796885122032E+07,
2460833.500000000, A.D. 2025-Jun-07 00:00:00.0000, -1.592577753685698E+08, -3.833717621408957E+08, -6.980862512873630E+07,
2460840.500000000, A.D. 2025-Jun-14 00:00:00.0000, -1.484079954924874E+08, -3.867232099577779E+08, -6.958385458949877E+07,
2460847.500000000, A.D. 2025-Jun-21 00:00:00.0000, -1.374610051639811E+08, -3.898213588248519E+08, -6.931349963216662E+07,
2460854.500000000, A.D. 2025-Jun-28 00:00:00.0000, -1.264233913221796E+08, -3.926625184245192E+08, -6.899744190648156E+07,
2460861.500000000, A.D. 2025-Jul-05 00:00:00.0000, -1.153019086050740E+08, -3.952431875840301E+08, -6.863560348249649E+07,
2460868.500000000, A.D. 2025-Jul-12 00:00:00.0000, -1.041034726636646E+08, -3.975600632800685E+08, -6.822794786594597E+07,
2460875.500000000, A.D. 2025-Jul-19 00:00:00.0000, -9.283515319336459E+07, -3.996100494847225E+08, -6.777448091750550E+07,
2460882.500000000, A.D. 2025-Jul-26 00:00:00.0000, -8.150416647716817E+07, -4.013902658648773E+08, -6.727525169314459E+07,
2460889.500000000, A.D. 2025-Aug-02 00:00:00.0000, -7.011786738266239E+07, -4.028980562684675E+08, -6.673035320332247E+07,
2460896.500000000, A.D. 2025-Aug-09 00:00:00.0000, -5.868374080049822E+07, -4.041309969678217E+08, -6.613992308829236E+07,
2460903.500000000, A.D. 2025-Aug-16 00:00:00.0000, -4.720939246264054E+07, -4.050869046796129E+08, -6.550414421601474E+07,
2460910.500000000, A.D. 2025-Aug-23 00:00:00.0000, -3.570253886730351E+07, -4.057638443016618E+08, -6.482324522265038E+07,
2460917.500000000, A.D. 2025-Aug-30 00:00:00.0000, -2.417099600514536E+07, -4.061601356098354E+08, -6.409750096214655E+07,
2460924.500000000, A.D. 2025-Sep-06 00:00:00.0000, -1.262266833216405E+07, -4.062743578725416E+08, -6.332723264802524E+07,
2460931.500000000, A.D. 2025-Sep-13 00:00:00.0000, -1.065539690448799E+06, -4.061053548239812E+08, -6.251280773231360E+07,
2460938.500000000, A.D. 2025-Sep-20 00:00:00.0000, 1.049233706335570E+07, -4.056522416017754E+08, -6.165463995242336E+07,
2460945.500000000, A.D. 2025-Sep-27 00:00:00.0000, 2.204285274331402E+07, -4.049144105030135E+08, -6.075318938603482E+07,
2460952.500000000, A.D. 2025-Oct-04 00:00:00.0000, 3.357785477523486E+07, -4.038915349876468E+08, -5.980896228273672E+07,
2460959.500000000, A.D. 2025-Oct-11 00:00:00.0000, 4.508915997540853E+07, -4.025835728425833E+08, -5.882251071353891E+07,
2460966.500000000, A.D. 2025-Oct-18 00:00:00.0000, 5.656856740351991E+07, -4.009907687542607E+08, -5.779443208573979E+07,
2460973.500000000, A.D. 2025-Oct-25 00:00:00.0000, 6.800787137953553E+07, -3.991136562553104E+08, -5.672536853482318E+07,
2460980.500000000, A.D. 2025-Nov-01 00:00:00.0000, 7.939887465244094E+07, -3.969530590098866E+08, -5.561600619632575E+07,
2460987.500000000, A.D. 2025-Nov-08 00:00:00.0000, 9.073340170275366E+07, -3.945100914535360E+08, -5.446707436499098E+07,
2460994.500000000, A.D. 2025-Nov-15 00:00:00.0000, 1.020033122729992E+08, -3.917861588361161E+08, -5.327934456218657E+07,
2461001.500000000, A.D. 2025-Nov-22 00:00:00.0000, 1.132005154737656E+08, -3.887829564431104E+08, -5.205362953399374E+07,
2461008.500000000, A.D. 2025-Nov-29 00:00:00.0000, 1.243169842558397E+08, -3.855024668604279E+08, -5.079078207720356E+07,
2461015.500000000, A.D. 2025-Dec-06 00:00:00.0000, 1.353447679141986E+08, -3.819469554221907E+08, -4.949169349993840E+07,
2461022.500000000, A.D. 2025-Dec-13 00:00:00.0000, 1.462760030016992E+08, -3.781189672183855E+08, -4.815729203715520E+07,
2461029.500000000, A.D. 2025-Dec-20 00:00:00.0000, 1.571029260921306E+08, -3.740213246516109E+08, -4.678854146381709E+07,
2461036.500000000, A.D. 2025-Dec-27 00:00:00.0000, 1.678178872664137E+08, -3.696571229707566E+08, -4.538643960222526E+07,
2461043.500000000, A.D. 2026-Jan-03 00:00:00.0000, 1.784133628106834E+08, -3.650297244204576E+08, -4.395201664694293E+07,
2461050.500000000, A.D. 2026-Jan-10 00:00:00.0000, 1.888819671850288E+08, -3.601427517113262E+08, -4.248633337989514E+07,
2461057.500000000, A.D. 2026-Jan-17 00:00:00.0000, 1.992164644463377E+08, -3.550000809308969E+08, -4.099047931158701E+07,
2461064.500000000, A.D. 2026-Jan-24 00:00:00.0000, 2.094097791571712E+08, -3.496058339028058E+08, -3.946557076112176E+07,
2461071.500000000, A.D. 2026-Jan-31 00:00:00.0000, 2.194550067628783E+08, -3.439643700340400E+08, -3.791274888578106E+07,
2461078.500000000, A.D. 2026-Feb-07 00:00:00.0000, 2.293454234632507E+08, -3.380802777438802E+08, -3.633317767939088E+07,
2461085.500000000, A.D. 2026-Feb-14 00:00:00.0000, 2.390744958023290E+08, -3.319583655319090E+08, -3.472804197355549E+07,
2461092.500000000, A.D. 2026-Feb-21 00:00:00.0000, 2.486358903381484E+08, -3.256036521561731E+08, -3.309854543987672E+07,
2461099.500000000, A.D. 2026-Feb-28 00:00:00.0000, 2.580234822833378E+08, -3.190213548193979E+08, -3.144590840864226E+07,
2461106.500000000, A.D. 2026-Mar-07 00:00:00.0000, 2.672313610350573E+08, -3.122168773636414E+08, -2.977136548315045E+07,
2461113.500000000, A.D. 2026-Mar-14 00:00:00.0000, 2.762538353509551E+08, -3.051958008539863E+08, -2.807616340317504E+07,
2461120.500000000, A.D. 2026-Mar-21 00:00:00.0000, 2.850854399415043E+08, -2.979638737018099E+08, -2.636155909251273E+07,
2461127.500000000, A.D. 2026-Mar-28 00:00:00.0000, 2.937209414619290E+08, -2.905270003492660E+08, -2.462881763032970E+07,
2461134.500000000, A.D. 2026-Apr-04 00:00:00.0000, 3.021553432964053E+08, -2.828912295308403E+08, -2.287921017758933E+07,
2461141.500000000, A.D. 2026-Apr-11 00:00:00.0000, 3.103838894088836E+08, -2.750627425213201E+08, -2.111401192045049E+07,
2461148.500000000, A.D. 2026-Apr-18 00:00:00.0000, 3.184020674243895E+08, -2.670478414253933E+08, -1.933450005273277E+07,
2461155.500000000, A.D. 2026-Apr-25 00:00:00.0000, 3.262056109950246E+08, -2.588529375416377E+08, -1.754195180694121E+07,
2461162.500000000, A.D. 2026-May-02 00:00:00.0000, 3.337905014929243E+08, -2.504845398763613E+08, -1.573764254512215E+07,
2461169.500000000, A.D. 2026-May-09 00:00:00.0000, 3.411529691691770E+08, -2.419492439167643E+08, -1.392284393198931E+07,
2461176.500000000, A.D. 2026-May-16 00:00:00.0000, 3.482894941748593E+08, -2.332537205653696E+08, -1.209882221881780E+07,
2461183.500000000, A.D. 2026-May-23 00:00:00.0000, 3.551968075189629E+08, -2.244047042523597E+08, -1.026683656386413E+07,
2461190.500000000, A.D. 2026-May-30 00:00:00.0000, 3.618718899102515E+08, -2.154089799451088E+08, -8.428137176539361E+06,
2461197.500000000, A.D. 2026-Jun-06 00:00:00.0000, 3.683119681903986E+08, -2.062733723640487E+08, -6.583963527343482E+06,
2461204.500000000, A.D. 2026-Jun-13 00:00:00.0000, 3.745145130499089E+08, -1.970047372360308E+08, -4.735542946746379E+06,
2461211.500000000, A.D. 2026-Jun-20 00:00:00.0000, 3.804772375550882E+08, -1.876099516864470E+08, -2.884089330594212E+06,
2461218.500000000, A.D. 2026-Jun-27 00:00:00.0000, 3.861980948190912E+08, -1.780959041358086E+08, -1.030801826158971E+06,
2461225.500000000, A.D. 2026-Jul-04 00:00:00.0000, 3.916752748488594E+08, -1.684694844987383E+08, 8.231364362311736E+05,
2461232.500000000, A.D. 2026-Jul-11 00:00:00.0000, 3.969072008542987E+08, -1.587375748372015E+08, 2.676559530786984E+06,
2461239.500000000, A.D. 2026-Jul-18 00:00:00.0000, 4.018925251453868E+08, -1.489070404592223E+08, 4.528319836055920E+06,
2461246.500000000, A.D. 2026-Jul-25 00:00:00.0000, 4.066301246749454E+08, -1.389847214746574E+08, 6.377289044787467E+06,
2461253.500000000, A.D. 2026-Aug-01 00:00:00.0000, 4.111190963082141E+08, -1.289774248679725E+08, 8.222359075843669E+06,
2461260.500000000, A.D. 2026-Aug-08 00:00:00.0000, 4.153587520660068E+08, -1.188919171329354E+08, 1.006244286616155E+07,
2461267.500000000, A.D. 2026-Aug-15 00:00:00.0000, 4.193486147875457E+08, -1.087349170241546E+08, 1.189647504251613E+07,
2461274.500000000, A.D. 2026-Aug-22 00:00:00.0000, 4.230884134846013E+08, -9.851308720676963E+07, 1.372341264442001E+07,
2461281.500000000, A.D. 2026-Aug-29 00:00:00.0000, 4.265780761313418E+08, -8.823302617990500E+07, 1.554223599822871E+07,
$$EOE